[
    {
        "Altitude(m)": 607886.7367436022,
        "Argument of Periapsis(deg)": 0.0,
        "Eccentricity": 0.0,
        "Inclination(deg)": 60.0,
        "Latitude(deg)": 40.99856634234135,
        "Longitude(deg)": 64.97289835409067,
        "Mean Anomaly(deg)": 49.09089999999999,
        "RAAN(deg)": 135.0,
        "Satellite Name": "Test1 597",
        "Satellite Number": 597,
        "Semi-Major Axis(m)": 6980739.136638005,
        "Time(s)": 0
    },
    {
        "Altitude(m)": 607987.6511885038,
        "Argument of Periapsis(deg)": 0.00010418945913296404,
        "Eccentricity": 0.0,
        "Inclination(deg)": 60.0,
        "Latitude(deg)": 41.46365722935315,
        "Longitude(deg)": 65.47712583572178,
        "Mean Anomaly(deg)": 49.71100614546182,
        "RAAN(deg)": 134.99957995086024,
        "Satellite Name": "Test1 597",
        "Satellite Number": 597,
        "Semi-Major Axis(m)": 6980739.136638005,
        "Time(s)": 10
    }
]